NORAD_CAT_ID,OBJECT_NAME,OBJECT_TYPE,EPOCH,MEAN_MOTION,ECCENTRICITY,INCLINATION,RA_OF_ASC_NODE,ARG_OF_PERICENTER,MEAN_ANOMALY,BSTAR,MEAN_MOTION_DOT,MEAN_MOTION_DDOT,TLE_LINE0,TLE_LINE1,TLE_LINE2,SEMIMAJOR_AXIS,PERIOD,APOGEE,PERIGEE,DECAYED
52355.0,STARLINK-3877,PAYLOAD,2022-09-12 14:00:01,15.08805176,0.0001457,53.2187,158.8101,57.1811,63.67,0.0033999,0.00054186,0.0,0 STARLINK-3877,1 52355U 22045AA  22255.58334491  .00054186  00000-0  33999-2 0  9995,2 52355  53.2187 158.8101 0001457  57.1811  63.6700 15.08805176  1309,6917.986999999999,95.44,540.86,538.844,0.0
52355.0,STARLINK-3877,PAYLOAD,2022-09-12 22:00:00,15.08859369,0.0001549,53.2188,157.3149,55.7296,76.6945,-0.0018549,-0.00029703,0.0,0 STARLINK-3877,1 52355U 22045AA  22255.91667824 -.00029703  00000-0 -18549-2 0  9994,2 52355  53.2188 157.3149 0001549  55.7296  76.6945 15.08859369  1307,6917.821,95.436,540.758,538.615,0.0
52355.0,STARLINK-3877,PAYLOAD,2022-09-13 14:00:01,15.08836782,0.0001384,53.218,154.3211,57.9643,97.6788,0.00093568,0.00014633,0.0,0 STARLINK-3877,1 52355U 22045AA  22256.58334491  .00014633  00000-0  93568-3 0  9998,2 52355  53.2180 154.3211 0001384  57.9643  97.6788 15.08836782  1305,6917.89,95.438,540.7130000000002,538.798,0.0
52355.0,STARLINK-3877,PAYLOAD,2022-09-13 16:00:00,15.08844964,0.0001398,53.2178,153.946,61.2451,187.2953,5.6449e-05,6.11e-06,0.0,0 STARLINK-3877,1 52355U 22045AA  22256.66667824  .00000611  00000-0  56449-4 0  9995,2 52355  53.2178 153.9460 0001398  61.2451 187.2953 15.08844964 23599,6917.865,95.437,540.697,538.763,0.0
52355.0,STARLINK-3877,PAYLOAD,2022-09-13 22:00:00,15.08852354,0.0001523,53.218,152.826,56.837,110.3949,-0.0029683,-0.00047235,0.0,0 STARLINK-3877,1 52355U 22045AA  22256.91667824 -.00047235  00000-0 -29683-2 0  9996,2 52355  53.2180 152.8260 0001523  56.8370 110.3949 15.08852354  1307,6917.843000000003,95.437,540.761,538.654,0.0
52355.0,STARLINK-3877,PAYLOAD,2022-09-14 06:00:00,15.0881316,0.0001545,53.2174,151.3301,50.2613,128.5478,0.00060235,9.304e-05,0.0,0 STARLINK-3877,1 52355U 22045AA  22257.25001157  .00009304  00000-0  60235-3 0  9997,2 52355  53.2174 151.3301 0001545  50.2613 128.5478 15.08813160 23687,6917.962,95.439,540.896,538.759,0.0
52355.0,STARLINK-3877,PAYLOAD,2022-09-14 14:00:01,15.08720078,0.0001641999999999,53.2173,149.8234,56.6787,133.7377,0.010094,0.00163575,0.0,0 STARLINK-3877,1 52355U 22045AA  22257.58334491  .00163575  00000-0  10094-1 0  9990,2 52355  53.2173 149.8234 0001642  56.6787 133.7377 15.08720078  1309,6918.246999999999,95.445,541.248,538.976,0.0
52355.0,STARLINK-3877,PAYLOAD,2022-09-14 22:00:00,15.08838932,0.0001520999999999,53.2173,148.3373,55.7307,146.2174,-0.00060452,-9.896e-05,0.0,0 STARLINK-3877,1 52355U 22045AA  22257.91667824 -.00009896  00000-0 -60452-3 0  9998,2 52355  53.2173 148.3373 0001521  55.7307 146.2174 15.08838932  1304,6917.884,95.438,540.8009999999998,538.696,0.0
52355.0,STARLINK-3877,PAYLOAD,2022-09-15 14:00:01,15.08842116,0.0001396999999999,53.2168,145.3431,57.9476,167.2017,0.00037779,5.73e-05,0.0,0 STARLINK-3877,1 52355U 22045AA  22258.58334491  .00005730  00000-0  37779-3 0  9990,2 52355  53.2168 145.3431 0001397  57.9476 167.2017 15.08842116  1300,6917.874,95.437,540.705,538.7719999999998,0.0
52355.0,STARLINK-3877,PAYLOAD,2022-09-15 19:21:55,15.08847428,0.0001534,53.2191,144.3403,53.9132,306.2002,8.675399999999999e-05,1.093e-05,0.0,0 STARLINK-3877,1 52355U 22045AA  22258.80688857  .00001093  00000-0  86754-4 0  9999,2 52355  53.2191 144.3403 0001534  53.9132 306.2002 15.08847428 23924,6917.858,95.437,540.784,538.661,0.0
52355.0,STARLINK-3877,PAYLOAD,2022-09-16 00:08:04,15.08844286,0.0001012,53.2197,143.444,62.8877,297.2218,3.1774e-05,2.18e-06,0.0,0 STARLINK-3877,1 52355U 22045AA  22259.00561145  .00000218  00000-0  31774-4 0  9992,2 52355  53.2197 143.4440 0001012  62.8877 297.2218 15.08844286 23957,6917.8669999999975,95.437,540.432,539.0319999999998,0.0
52355.0,STARLINK-3877,PAYLOAD,2022-09-16 01:43:28,15.08840512,0.0001115,53.2201,143.148,60.7525,299.3579,3.1083e-05,2.07e-06,0.0,0 STARLINK-3877,1 52355U 22045AA  22259.07185433  .00000207  00000-0  31083-4 0  9992,2 52355  53.2201 143.1480 0001115  60.7525 299.3579 15.08840512 23967,6917.879,95.438,540.515,538.972,0.0
52355.0,STARLINK-3877,PAYLOAD,2022-09-16 20:48:06,15.08831342,0.0001398,53.2196,139.5821,54.2183,305.8939,-3.0495e-05,-7.73e-06,0.0,0 STARLINK-3877,1 52355U 22045AA  22259.86674587 -.00000773  00000-0 -30495-4 0  9998,2 52355  53.2196 139.5821 0001398  54.2183 305.8939 15.08831342 24087,6917.906999999997,95.438,540.739,538.805,0.0
52355.0,STARLINK-3877,PAYLOAD,2022-09-17 09:31:12,15.08828432,0.0001554999999999,53.2192,137.204,54.428,305.6857,-0.00010325,-1.93e-05,0.0,0 STARLINK-3877,1 52355U 22045AA  22260.39667316 -.00001930  00000-0 -10325-3 0  9995,2 52355  53.2192 137.2040 0001555  54.4280 305.6857 15.08828432 24168,6917.916,95.438,540.856,538.705,0.0
52355.0,STARLINK-3877,PAYLOAD,2022-09-17 20:38:54,15.08836358,0.0001595,53.2191,135.1223,55.1171,304.9971,-7.7819e-05,-1.526e-05,0.0,0 STARLINK-3877,1 52355U 22045AA  22260.86034946 -.00001526  00000-0 -77819-4 0  9997,2 52355  53.2191 135.1223 0001595  55.1171 304.9971 15.08836358 24231,6917.892,95.438,540.86,538.653,0.0
52355.0,STARLINK-3877,PAYLOAD,2022-09-18 01:25:03,15.08835536,0.0001678,53.2191,134.2307,54.8539,305.261,4.7217e-06,-2.13e-06,0.0,0 STARLINK-3877,1 52355U 22045AA  22261.05906760 -.00000213  00000-0  47217-5 0  9992,2 52355  53.2191 134.2307 0001678  54.8539 305.2610 15.08835536 24264,6917.894,95.438,540.92,538.5980000000002,0.0
52355.0,STARLINK-3877,PAYLOAD,2022-09-18 18:54:17,15.0884194,0.0001740999999999,53.2187,130.9598,56.6186,303.4973,8.3362e-05,1.039e-05,0.0,0 STARLINK-3877,1 52355U 22045AA  22261.78770167  .00001039  00000-0  83362-4 0  9998,2 52355  53.2187 130.9598 0001741  56.6186 303.4973 15.08841940 24373,6917.874,95.437,540.944,538.535,0.0
52355.0,STARLINK-3877,PAYLOAD,2022-09-18 20:29:40,15.08843436,0.0001751999999999,53.2187,130.6625,56.9732,303.1429,9.5235e-05,1.228e-05,0.0,0 STARLINK-3877,1 52355U 22045AA  22261.85394026  .00001228  00000-0  95235-4 0  9994,2 52355  53.2187 130.6625 0001752  56.9732 303.1429 15.08843436 24389,6917.87,95.437,540.947,538.523,0.0
52355.0,STARLINK-3877,PAYLOAD,2022-09-18 23:40:26,15.08843955,0.0001905,53.2193,130.0684,65.5175,294.6016,6.1134000000000015e-06,-1.91e-06,0.0,0 STARLINK-3877,1 52355U 22045AA  22261.98642311 -.00000191  00000-0  61134-5 0  9992,2 52355  53.2193 130.0684 0001905  65.5175 294.6016 15.08843955 24407,6917.868,95.437,541.0509999999998,538.415,0.0
52355.0,STARLINK-3877,PAYLOAD,2022-09-19 15:34:18,15.08837074,0.0001872,53.2195,127.0956,58.8706,301.247,5.5102e-05,5.89e-06,0.0,0 STARLINK-3877,1 52355U 22045AA  22262.64882697  .00000589  00000-0  55102-4 0  9996,2 52355  53.2195 127.0956 0001872  58.8706 301.2470 15.08837074 24500,6917.889,95.438,541.049,538.4590000000002,0.0
52355.0,STARLINK-3877,PAYLOAD,2022-09-19 21:55:50,15.08841763,0.0001847,53.2206,125.9069,67.4116,292.7071,9.9217e-05,1.291e-05,0.0,0 STARLINK-3877,1 52355U 22045AA  22262.91378175  .00001291  00000-0  99217-4 0  9993,2 52355  53.2206 125.9069 0001847  67.4116 292.7071 15.08841763 24543,6917.875,95.437,541.018,538.462,0.0
52355.0,STARLINK-3877,PAYLOAD,2022-09-20 07:28:09,15.08841856,0.0001151,53.2189,124.1218,27.7707,332.3346,2.0398e-05,3.7e-07,0.0,0 STARLINK-3877,1 52355U 22045AA  22263.31122372  .00000037  00000-0  20398-4 0  9995,2 52355  53.2189 124.1218 0001151  27.7707 332.3346 15.08841856 24609,6917.875,95.437,540.536,538.943,0.0
52355.0,STARLINK-3877,PAYLOAD,2022-09-20 15:25:06,15.08835032,0.0001638,53.2189,122.6362,51.2501,308.8638,-6.5754e-05,-1.334e-05,0.0,0 STARLINK-3877,1 52355U 22045AA  22263.64243314 -.00001334  00000-0 -65754-4 0  9999,2 52355  53.2189 122.6362 0001638  51.2501 308.8638 15.08835032 24652,6917.896,95.438,540.894,538.627,0.0
52355.0,STARLINK-3877,PAYLOAD,2022-09-21 00:57:24,15.08842436,0.0001744,53.2186,120.8518,53.4487,306.6666,-2.6428e-06,-3.3e-06,0.0,0 STARLINK-3877,1 52355U 22045AA  22264.03986642 -.00000330  00000-0 -26428-5 0  9992,2 52355  53.2186 120.8518 0001744  53.4487 306.6666 15.08842436 24717,6917.873000000001,95.437,540.944,538.531,0.0
52355.0,STARLINK-3877,PAYLOAD,2022-09-21 16:51:16,15.08867138,0.0001686999999999,53.2191,117.8765,62.4099,297.7064,-0.0004127,-6.855e-05,0.0,0 STARLINK-3877,1 52355U 22045AA  22264.70226886 -.00006855  00000-0 -41270-3 0  9991,2 52355  53.2191 117.8765 0001687  62.4099 297.7064 15.08867138 24817,6917.797,95.436,540.8290000000002,538.495,0.0
52355.0,STARLINK-3877,PAYLOAD,2022-09-22 02:23:34,15.08861029,0.0001671,53.2189,116.092,61.8002,298.3158,-0.00038207,-6.367e-05,0.0,0 STARLINK-3877,1 52355U 22045AA  22265.09970689 -.00006367  00000-0 -38207-3 0  9995,2 52355  53.2189 116.0920 0001671  61.8002 298.3158 15.08861029 24878,6917.816,95.436,540.837,538.525,0.0
52355.0,STARLINK-3877,PAYLOAD,2022-09-22 07:09:44,15.08831396,0.0001631,53.219,115.2001,56.6475,303.4673,4.6731e-05,4.56e-06,0.0,0 STARLINK-3877,1 52355U 22045AA  22265.29843335  .00000456  00000-0  46731-4 0  9997,2 52355  53.2190 115.2001 0001631  56.6475 303.4673 15.08831396 24901,6917.906999999997,95.438,540.9,538.643,0.0
52355.0,STARLINK-3877,PAYLOAD,2022-09-22 19:52:49,15.08841713,0.0001571999999999,53.2191,112.821,57.2208,302.8936,2.4119e-05,9.6e-07,0.0,0 STARLINK-3877,1 52355U 22045AA  22265.82834873  .00000096  00000-0  24119-4 0  9999,2 52355  53.2191 112.8210 0001572  57.2208 302.8936 15.08841713 24989,6917.875,95.437,540.828,538.653,0.0
52355.0,STARLINK-3877,PAYLOAD,2022-09-22 21:28:12,15.08842222,0.0001575999999999,53.2191,112.5237,57.148,302.9664,2.8016e-05,1.58e-06,0.0,0 STARLINK-3877,1 52355U 22045AA  22265.89458820  .00000158  00000-0  28016-4 0  9999,2 52355  53.2191 112.5237 0001576  57.1480 302.9664 15.08842222 24996,6917.874,95.437,540.8290000000002,538.648,0.0
